GEESAT-3 08             
1 61018U 24159H   25275.16811230  .00008660  00000+0  93074-3 0  9995
2 61018  50.0034 200.9700 0018266 178.8700 181.2285 14.89053198 58437
GEESAT-3 09             
1 61019U 24159J   25275.17504358  .00008793  00000+0  94558-3 0  9992
2 61019  49.9957 200.7249 0013293 125.7168 234.5012 14.89065116 58432
GEESAT-3 10             
1 61020U 24159K   25275.21228779  .00017922  00000+0  18983-2 0  9990
2 61020  49.9977 201.0245 0013287 254.5273 105.4201 14.89068946 58178
SPACEMOBILE-003         
1 61045U 24163A   25274.64825006  .00008819  00000+0  41030-3 0  9999
2 61045  52.9727  58.6597 0011937  71.9230 288.3063 15.20655135 58425
SPACEMOBILE-005         
1 61046U 24163B   25275.09298980  .00009327  00000+0  43269-3 0  9996
2 61046  52.9785  56.5067 0012340  71.6575 288.5760 15.20681949 58481
SPACEMOBILE-001         
1 61047U 24163C   25274.69671103  .00008225  00000+0  38342-3 0  9996
2 61047  52.9767  58.1492 0011891  71.3991 288.8293 15.20680530 58424
SPACEMOBILE-002         
1 61048U 24163D   25274.74696597  .00011090  00000+0  51142-3 0  9994
2 61048  52.9769  57.8802 0012392  72.7884 287.4465 15.20690383 58435
SPACEMOBILE-004         
1 61049U 24163E   25275.19085066  .00010434  00000+0  48239-3 0  9992
2 61049  52.9710  55.6691 0011744  86.2445 273.9892 15.20671893 58504
STARLINK-11286 [DTC]    
1 61050U 24164A   25274.99382983 -.00004833  00000+0 -35084-4 0  9993
2 61050  53.1583  13.6045 0001102  84.3578 275.7565 15.69692656 60498
STARLINK-11252 [DTC]    
1 61051U 24164B   25274.98892301 -.00002540  00000+0 -16132-4 0  9999
2 61051  53.1583  13.5727 0000526 100.6134 259.4943 15.69691873 60493
STARLINK-11284 [DTC]    
1 61052U 24164C   25275.16670139  .01774335  00000+0  93902-2 0  9999
2 61052  53.1513  12.4278 0005752   6.7982  49.0190 15.77069353  5979
STARLINK-11230 [DTC]    
1 61053U 24164D   25274.97911388 -.00004867  00000+0 -35350-4 0  9994
2 61053  53.1581  13.5063 0001576  64.8246 295.2936 15.69694565 60498
STARLINK-11294 [DTC]    
1 61054U 24164E   25274.97421326 -.00003883  00000+0 -27204-4 0  9999
2 61054  53.1590  13.4725 0002115  42.7950 317.3233 15.69700875 60498
STARLINK-11268 [DTC]    
1 61055U 24164F   25274.65096028 -.00007431  00000+0 -56610-4 0  9998
2 61055  53.1579  15.0092 0000951  72.9449 287.1673 15.69679521 60445
STARLINK-11156 [DTC]    
1 61056U 24164G   25274.58237127 -.00000464  00000+0  10212-5 0  9995
2 61056  53.1578  15.2901 0000554  71.8084 288.2994 15.69705469 60436
STARLINK-11231 [DTC]    
1 61057U 24164H   25274.57756233  .00001674  00000+0  18666-4 0  9992
2 61057  53.1594  15.9927 0001099  67.8969 292.2165 15.69716580 60422
STARLINK-11299 [DTC]    
1 61058U 24164J   25274.57266051  .00000798  00000+0  11441-4 0  9997
2 61058  53.1597  15.9596 0000962  83.8490 276.2638 15.69715438 60421
STARLINK-11154 [DTC]    
1 61059U 24164K   25274.69511612 -.00004052  00000+0 -28633-4 0  9997
2 61059  53.1596  15.3000 0001250  57.7409 302.3730 15.69686906 60449
STARLINK-11297 [DTC]    
1 61060U 24164L   25275.00854685 -.00003070  00000+0 -20500-4 0  9999
2 61060  53.1587  13.7004 0001100  61.1110 299.0018 15.69703576 60498
STARLINK-11233 [DTC]    
1 61061U 24164M   25275.00364490 -.00005164  00000+0 -37823-4 0  9992
2 61061  53.1594  13.6638 0001318  90.6503 269.4666 15.69690407 60491
STARLINK-11236 [DTC]    
1 61062U 24164N   25274.99873519 -.00002531  00000+0 -16054-4 0  9995
2 61062  53.1580  13.6305 0000931  94.4103 265.7021 15.69687690 60490
STARLINK-32350          
1 61063U 24164P   25274.94749683  .00007073  00000+0  25096-3 0  9994
2 61063  53.1597 108.4409 0001768  97.1660 262.9542 15.30165341 59176
STARLINK-32378          
1 61064U 24164Q   25274.81996920  .00006463  00000+0  22983-3 0  9993
2 61064  53.1598 109.0659 0001032  94.5886 265.5233 15.30245915 59157
STARLINK-32321          
1 61065U 24164R   25274.82951729  .00001806  00000+0  73110-4 0  9998
2 61065  53.1585 109.1322 0001221  93.1491 266.9649 15.30192700 59158
STARLINK-32381          
1 61066U 24164S   25274.97070738 -.00006309  00000+0 -20122-3 0  9996
2 61066  53.1590 108.5899 0001360  99.7862 260.3292 15.30176622 59174
STARLINK-32385          
1 61068U 24164U   25274.95699929 -.00001365  00000+0 -33996-4 0  9996
2 61068  53.1596 108.5013 0001060  86.9199 273.1923 15.30183609 59174
STARLINK-32380          
1 61069U 24164V   25274.82318711  .00000728  00000+0  36722-4 0  9990
2 61069  53.1601 109.0895 0001341  81.2092 278.9061 15.30191917 59153
STARLINK-32375          
1 61070U 24164W   25274.96331465  .00003156  00000+0  11866-3 0  9997
2 61070  53.1588 108.5401 0001114  96.5748 263.5380 15.30191904 59173
QAEM 100 R/B            
1 61071U 24165A   25275.17074367  .00010044  00000+0  57619-3 0  9998
2 61071  64.0747 163.5525 0044508 320.2284  39.5571 15.12191335 57805
CHAMRAN-1               
1 61072U 24165B   25275.20537301  .00019030  00000+0  12253-2 0  9993
2 61072  64.0778 168.7447 0031159 310.8651  48.9763 15.08040253 57715
