OBJECT_NAME,OBJECT_ID,EPOCH,MEAN_MOTION,ECCENTRICITY,INCLINATION,RA_OF_ASC_NODE,ARG_OF_PERICENTER,MEAN_ANOMALY,EPHEMERIS_TYPE,CLASSIFICATION_TYPE,NORAD_CAT_ID,ELEMENT_SET_NO,REV_AT_EPOCH,BSTAR,MEAN_MOTION_DOT,MEAN_MOTION_DDOT
GEESAT-3 08,2024-159H,2025-10-02T04:02:04.902720,14.89053198,0.0018266,50.0034,200.97,178.87,181.2285,0,U,61018,999,5843,0.00093074,8.66e-05,0.0
GEESAT-3 09,2024-159J,2025-10-02T04:12:03.765312,14.89065116,0.0013293,49.9957,200.7249,125.7168,234.5012,0,U,61019,999,5843,0.00094558,8.793e-05,0.0
GEESAT-3 10,2024-159K,2025-10-02T05:05:41.665056,14.89068946,0.0013287,49.9977,201.0245,254.5273,105.4201,0,U,61020,999,5817,0.0018983,0.00017922,0.0
SPACEMOBILE-003,2024-163A,2025-10-01T15:33:28.805184,15.20655135,0.00119374,52.9727,58.6597,71.923,288.3063,0,U,61045,999,5842,0.00041029755,8.819e-05,0.0
SPACEMOBILE-005,2024-163B,2025-10-02T02:13:54.318720,15.20681949,0.001234,52.9785,56.5067,71.6575,288.576,0,U,61046,999,5848,0.00043269,9.327e-05,0.0
SPACEMOBILE-001,2024-163C,2025-10-01T16:43:15.832992,15.2068053,0.0011891,52.9767,58.1492,71.3991,288.8293,0,U,61047,999,5842,0.00038342,8.225e-05,0.0
SPACEMOBILE-002,2024-163D,2025-10-01T17:55:37.859808,15.20690383,0.00123929,52.9769,57.8802,72.7884,287.4465,0,U,61048,999,5843,0.00051141644,0.0001109,0.0
SPACEMOBILE-004,2024-163E,2025-10-02T04:34:49.497024,15.20671893,0.0011744,52.971,55.6691,86.2445,273.9892,0,U,61049,999,5850,0.00048239,0.00010434,0.0
STARLINK-11286 [DTC],2024-164A,2025-10-01T23:51:06.897312,15.69692656,0.0001102,53.1583,13.6045,84.3578,275.7565,0,U,61050,999,6049,-3.5084e-05,-4.833e-05,0.0
STARLINK-11252 [DTC],2024-164B,2025-10-01T23:44:02.948064,15.69691873,5.26e-05,53.1583,13.5727,100.6134,259.4943,0,U,61051,999,6049,-1.6132e-05,-2.54e-05,0.0
STARLINK-11284 [DTC],2024-164C,2025-10-02T04:00:03.000096,15.77069353,0.0005752,53.1513,12.4278,6.7982,49.019,0,U,61052,999,597,0.0093902,0.01774335,0.0
STARLINK-11230 [DTC],2024-164D,2025-10-01T23:29:55.439232,15.69694565,0.0001576,53.1581,13.5063,64.8246,295.2936,0,U,61053,999,6049,-3.535e-05,-4.867e-05,0.0
STARLINK-11294 [DTC],2024-164E,2025-10-01T23:22:52.025664,15.69700875,0.0002115,53.159,13.4725,42.795,317.3233,0,U,61054,999,6049,-2.7204e-05,-3.883e-05,0.0
STARLINK-11268 [DTC],2024-164F,2025-10-01T15:37:22.968192,15.69679521,9.515e-05,53.1579,15.0092,72.9449,287.1673,0,U,61055,999,6044,-5.6609744e-05,-7.431e-05,0.0
STARLINK-11156 [DTC],2024-164G,2025-10-01T13:58:36.877728,15.69705469,5.549e-05,53.1578,15.2901,71.8084,288.2994,0,U,61056,999,6043,1.021174e-06,-4.64e-06,0.0
STARLINK-11231 [DTC],2024-164H,2025-10-01T13:51:41.385312,15.6971658,0.0001099,53.1594,15.9927,67.8969,292.2165,0,U,61057,999,6042,1.8666e-05,1.674e-05,0.0
STARLINK-11299 [DTC],2024-164J,2025-10-01T13:44:37.868064,15.69715438,9.624e-05,53.1597,15.9596,83.849,276.2638,0,U,61058,999,6042,1.1441102e-05,7.98e-06,0.0
STARLINK-11154 [DTC],2024-164K,2025-10-01T16:40:58.032768,15.69686906,0.00012501,53.1596,15.3,57.7409,302.373,0,U,61059,999,6044,-2.8632878e-05,-4.052e-05,0.0
STARLINK-11297 [DTC],2024-164L,2025-10-02T00:12:18.447840,15.69703576,0.00011,53.1587,13.7004,61.111,299.0018,0,U,61060,999,6049,-2.05e-05,-3.07e-05,0.0
STARLINK-11233 [DTC],2024-164M,2025-10-02T00:05:14.919360,15.69690407,0.0001318,53.1594,13.6638,90.6503,269.4666,0,U,61061,999,6049,-3.7823e-05,-5.164e-05,0.0
STARLINK-11236 [DTC],2024-164N,2025-10-01T23:58:10.720416,15.6968769,9.31e-05,53.158,13.6305,94.4103,265.7021,0,U,61062,999,6049,-1.6054e-05,-2.531e-05,0.0
STARLINK-32350,2024-164P,2025-10-01T22:44:23.726112,15.30165341,0.0001768,53.1597,108.4409,97.166,262.9542,0,U,61063,999,5917,0.00025096,7.073e-05,0.0
STARLINK-32378,2024-164Q,2025-10-01T19:40:45.338880,15.30245915,0.0001032,53.1598,109.0659,94.5886,265.5233,0,U,61064,999,5915,0.00022983,6.463e-05,0.0
STARLINK-32321,2024-164R,2025-10-01T19:54:30.293856,15.301927,0.00012217,53.1585,109.1322,93.1491,266.9649,0,U,61065,999,5915,7.3110027e-05,1.806e-05,0.0
STARLINK-32381,2024-164S,2025-10-01T23:17:49.117632,15.30176622,0.000136,53.159,108.5899,99.7862,260.3292,0,U,61066,999,5917,-0.00020122,-6.309e-05,0.0
STARLINK-32385,2024-164U,2025-10-01T22:58:04.738656,15.30183609,0.000106,53.1596,108.5013,86.9199,273.1923,0,U,61068,999,5917,-3.3996e-05,-1.365e-05,0.0
STARLINK-32380,2024-164V,2025-10-01T19:45:23.366304,15.30191917,0.0001341,53.1601,109.0895,81.2092,278.9061,0,U,61069,999,5915,3.6722e-05,7.28e-06,0.0
STARLINK-32375,2024-164W,2025-10-01T23:07:10.385760,15.30191904,0.0001114,53.1588,108.5401,96.5748,263.538,0,U,61070,999,5917,0.00011866,3.156e-05,0.0
QAEM 100 R/B,2024-165A,2025-10-02T04:05:52.253088,15.12191335,0.0044508,64.0747,163.5525,320.2284,39.5571,0,U,61071,999,5780,0.00057619,0.00010044,0.0
CHAMRAN-1,2024-165B,2025-10-02T04:55:44.228064,15.08040253,0.0031159,64.0778,168.7447,310.8651,48.9763,0,U,61072,999,5771,0.0012253,0.0001903,0.0
